#aV2021  4 23  0  0  0.00000000     288 DD+AD WGS84 FIT  NGA
## 2154 432000.00000000   300.00000000 59327 0.0000000000000
+   31     1  2  3  4  5  6  7  8  9 10 12 13 14 15 16 17 18
+         19 20 21 22 23 24 25 26 27 28 29 30 31 32  0  0  0
+          0  0  0  0  0  0  0  0  0  0  0  0  0  0  0  0  0
+          0  0  0  0  0  0  0  0  0  0  0  0  0  0  0  0  0
+          0  0  0  0  0  0  0  0  0  0  0  0  0  0  0  0  0
++         2  2  2  2  2  2  2  2  2  2  2  2  2  2  2  2  2
++         2  2  2  2  2  2  2  2  2  2  2  2  2  2  0  0  0
++         0  0  0  0  0  0  0  0  0  0  0  0  0  0  0  0  0
++         0  0  0  0  0  0  0  0  0  0  0  0  0  0  0  0  0
++         0  0  0  0  0  0  0  0  0  0  0  0  0  0  0  0  0
%c cc cc ccc ccc cccc cccc cccc cccc ccccc ccccc ccccc ccccc
%c cc cc ccc ccc cccc cccc cccc cccc ccccc ccccc ccccc ccccc
%f  0.0000000  0.000000000  0.00000000000  0.000000000000000
%f  0.0000000  0.000000000  0.00000000000  0.000000000000000
%i    0    0    0    0      0      0      0      0         0
%i    0    0    0    0      0      0      0      0         0
/*      NGA, ST. LOUIS,MO.                                  
/*   EPHEMERIS COMPUTED FROM 2 DAYS OF DATA                 
/*   EPOCHA v6 SMOOTHER                                     
/*   G2139 IERS2010 SATIGS SATAPC                           
*  2021  4 23 21 15  0.00000000
P  1  19508.092701  10235.336973  14833.249823    708.311073                    
V  1  10032.168451  16312.051781 -23702.847181     -0.102426                    
P  2 -12612.819062 -22423.534668   7144.155730   -598.304341                    
V  2   7264.951416   4608.110830  30103.198456     -0.033367                    
P  3  16022.867924   -451.046394  21075.847516   -145.078050                    
V  3 -10172.713002  24967.251864   8345.245683     -0.104870                    
P  4  25991.026587   1769.255394   5339.964717   -193.270462                    
V  4  -6536.636505   3202.207970  30742.491933     -0.017996                    
P  5  -8444.065625 -16061.436920 -19486.621347    -39.935985                    
V  5  10324.094301 -22253.626101  14158.929893     -0.010792                    
P  6  -2211.949763 -21078.307845  16032.190764      9.595667                    
V  6  13120.432843  15452.612606  22267.926943      0.031257                    
P  7  15615.049837  -3762.862111 -20884.179167    130.963508                    
V  7  15530.264469  22415.631111   6965.764184      0.113049                    
P  8  22053.875735   6583.717060 -13525.598960    -18.605649                    
V  8 -16663.606564   3974.064201 -24950.433050     -0.014338                    
P  9  25124.203968  -6941.402772  -5235.175600   -340.992018                    
V  9   6893.079182   2087.884255  30636.034832     -0.026101                    
P 10 -11567.134487  23681.628068  -1653.464012   -108.051674                    
V 10  -1668.610053  -3187.550086 -32007.757014     -0.077183                    
P 12 -14760.498408  -3414.550098  21547.873223    -31.791425                    
V 12  12644.561486 -24924.155007   4799.054956     -0.051068                    
P 13 -14123.200949 -13044.530269 -18514.757599    123.553628                    
V 13  23192.199733   -781.848106 -17135.260409      0.046460                    
P 14  13181.516044 -22923.513834  -2369.120081     93.598697                    
V 14   1306.204183   3989.130878 -31501.570205     -0.034746                    
P 15 -22847.560146  -4965.343704 -13282.870659   -154.132262                    
V 15  15234.056350  -6201.968467 -24200.520679      0.026158                    
P 16   3647.073243  19016.559373 -18212.542607   -314.340247                    
V 16 -12354.855358  19190.854367  18253.083100     -0.059351                    
P 17  13901.982414 -13232.893436  18785.152566    431.253119                    
V 17  22944.666632    -90.836168 -17442.708704      0.062004                    
P 18 -12737.429617   8062.996033 -21876.447845    351.494265                    
V 18 -15887.545892 -22732.879571    811.967951     -0.003026                    
P 19   4917.625960 -14393.334795  21474.537790     -9.026166                    
V 19  27908.050776    382.272639  -6158.216397      0.050028                    
P 20 -16428.126660   2495.197993 -20664.041126    522.876277                    
V 20   5999.539497 -25707.071893  -8170.184916     -0.003717                    
P 21  20816.583764  14800.269057   8839.317338    113.191871                    
V 21   4912.943431   9095.583876 -28723.328751      0.028036                    
P 22  13147.088748   9905.986402  21063.652292   -630.946160                    
V 22  -8776.572022  24881.428989  -6093.563904      0.089713                    
P 23 -16145.982433  17236.730506 -12125.632466    111.723904                    
V 23   3685.118774 -15107.827905 -26467.642700     -0.024062                    
P 24 -20837.992305 -13453.710482   9777.891512     30.610359                    
V 24  -5933.665399 -11596.222112 -27507.105946      0.299357                    
P 25 -17343.184870  10812.326496  16548.495500    124.248638                    
V 25   6784.733947 -20635.938271  20537.179127      0.072229                    
P 26  -1676.326311  24424.054760 -10021.350047     76.183685                    
V 26  -7617.595884  10734.532495  27855.980622      0.051177                    
P 27  11703.277485  12648.580436 -20486.548684   -118.032221                    
V 27 -25251.726495   3451.231228 -12038.575693     -0.067430                    
P 28  11532.648730 -23982.905589   2322.314889    582.168325                    
V 28   3046.018282   -894.997973 -31716.239299     -0.059144                    
P 29 -25522.957984   4765.605849  -5754.091332   -335.192802                    
V 29  -7284.765415  -1690.919300  31129.428126     -0.065778                    
P 30   5981.790341 -16685.975868 -19657.428462   -416.898611                    
V 30  15647.128985  19853.387627 -12287.488236     -0.051315                    
P 31   3895.634264  22258.082109  13495.898104   -113.321772                    
V 31 -12157.347101 -12818.674486  24955.503989     -0.022200                    
P 32 -11108.823389  14825.905285  19078.049454     22.009929                    
V 32 -24072.500681   1333.952964 -15307.597495     -0.001966                    
EOF
